0 SATCOM K2
1 16276U 85109D   13281.49795568  .00000035  00000-0  10000-3 0  8905
2 16276 013.2942 035.6001 0012291 136.9541 223.1430 00.99609063 79489
0 SATCOM K2
1 16276U 85109D   13283.50570914  .00000003  00000-0  10000-3 0  8911
2 16276 013.2972 035.5766 0012265 137.0129 223.0840 00.99609886 79504
0 SATCOM K2
1 16276U 85109D   13284.50958914 -.00000013  00000-0  10000-3 0  8925
2 16276 013.2991 035.5648 0012344 138.9388 221.1566 00.99610262 79514
0 SATCOM K2
1 16276U 85109D   13286.51731260 -.00000048  00000-0  10000-3 0  8930
2 16276 013.3020 035.5420 0012274 138.7340 221.3566 00.99610963 79536
0 SATCOM K2
1 16276U 85109D   13288.52499848 -.00000084  00000-0  10000-3 0  8947
2 16276 013.3049 035.5186 0012344 138.9883 221.0899 00.99611602 79557
0 SATCOM K2
1 16276U 85109D   13290.53266902 -.00000120  00000-0  10000-3 0  8956
2 16276 013.3079 035.4953 0012337 138.7524 221.3127 00.99612129 79577
0 SATCOM K2
1 16276U 85109D   13292.54034415 -.00000156  00000-0  10000-3 0  8961
2 16276 013.3108 035.4720 0012372 138.9538 221.1028 00.99612534 79598
0 SATCOM K2
1 16276U 85109D   13294.54803237 -.00000190  00000-0  10000-3 0  8978
2 16276 013.3138 035.4486 0012455 139.4638 220.5933 00.99612825 79613
